satname,norad_id,inclination_deg,eccentricity,mean_motion_rev_per_day,perigee_km,apogee_km,l1,l2
STARLINK-1540,46051,53.1598,0.0001409,15.3020833,474.2245638514969,476.15583145579694,1 46051U 20055AA  26113.68581001  .00003381  00000+0  12619-3 0  9996,2 46051  53.1598 264.8406 0001409  74.4855 285.6301 15.30208330315971
STARLINK-1541,46052,53.1593,0.0001257,15.5782862,393.09137379460026,394.79387461212445,1 46052U 20055AB  26114.00003472  .01186114  00000+0  14278-1 0  9993,2 46052  53.1593 261.5374 0001257  74.4624 149.2113 15.57828620  5612
STARLINK-1543,46053,53.1597,0.0001027,15.31722449,469.9697039472285,471.37644953699237,1 46053U 20055AC  26114.00003472 -.00011639  00000+0 -36363-3 0  9995,2 46053  53.1597 263.4193 0001027  67.4935 262.4399 15.31722449  5820
STARLINK-1548,46054,53.1602,6.74e-05,15.30193667,474.7720614770451,475.69589588497274,1 46054U 20055AD  26113.68897357 -.00000007  00000+0  11893-4 0  9990,2 46054  53.1602 264.8936 0000674  87.4491 272.6587 15.30193667315968
STARLINK-1554,46055,53.1597,0.0002008,15.31703967,469.35291770449385,472.1034219566982,1 46055U 20055AE  26113.67458054 -.00000914  00000+0 -17665-4 0  9998,2 46055  53.1597 264.9505 0002008  98.5041 261.6189 15.31703967315969
STARLINK-1564,46058,53.1595,0.0001725,15.30196001,474.04480444682304,476.4092150301831,1 46058U 20055AH  26113.16231529  .00000264  00000+0  21050-4 0  9990,2 46058  53.1595 267.7975 0001725  81.1329 278.9868 15.30196001315873
STARLINK-1570,46059,53.1589,7.22e-05,15.31706887,470.2249780771308,471.21395295075126,1 46059U 20055AJ  26113.70252952  .00000555  00000+0  29631-4 0  9990,2 46059  53.1589 264.7019 0000722  62.7431 297.3644 15.31706887315921
STARLINK-1572,46060,53.1591,0.0001168,15.30186189,474.4558305477922,476.0567832242805,1 46060U 20055AK  26113.66585545  .00008522  00000+0  29964-3 0  9994,2 46060  53.1591 265.2057 0001168  72.4769 287.6360 15.30186189315924
STARLINK-1573,46061,53.1597,8.94e-05,15.3172029,470.0672282629039,471.2917966553323,1 46061U 20055AL  26113.68853871  .00005661  00000+0  19392-3 0  9992,2 46061  53.1597 264.7375 0000894 120.6662 239.4428 15.31720290315963
STARLINK-1577,46063,53.1616,6.64e-05,15.31712016,470.2494133349592,471.15893944318304,1 46063U 20055AN  26113.65125796 -.00000260  00000+0  33739-5 0  9993,2 46063  53.1616 264.9017 0000664  46.0957 314.0099 15.31712016315955
STARLINK-1583,46064,53.1597,2.11e-05,15.30189935,475.1005154970526,475.3897282225953,1 46064U 20055AP  26113.69528732 -.00002393  00000+0 -68735-4 0  9998,2 46064  53.1597 264.8197 0000211  46.9770 313.1248 15.30189935315955
STARLINK-1536,46070,53.1523,8.48e-05,15.29360688,477.1408729215482,478.30362665031225,1 46070U 20055AV  26113.65692542  .00002354  00000+0  93865-4 0  9999,2 46070  53.1523 252.6655 0000848 114.5616 245.5473 15.29360688316124
STARLINK-1542,46073,53.082,9.89e-05,15.1376692,524.0419333255477,525.4073193552385,1 46073U 20055AY  26114.00003472  .00008605  00000+0  48758-3 0  9995,2 46073  53.0820 253.0644 0000989  66.3751  61.8868 15.13766920  5808
STARLINK-1549,46074,53.0503,5.43e-05,15.26086517,487.15196265925533,487.89757352726974,1 46074U 20055AZ  26113.66306780  .00038561  00000+0  14817-2 0  9997,2 46074  53.0503 252.1152 0000543 350.4406   9.6582 15.26086517316114
STARLINK-1551,46075,53.1573,0.0001053,15.29351595,477.02749997678166,478.471349657847,1 46075U 20055BA  26113.67301756 -.00002302  00000+0 -67493-4 0  9993,2 46075  53.1573 252.0888 0001053  70.2034 289.9080 15.29351595316120
STARLINK-1552,46076,53.1606,9.92e-05,15.30195864,474.5475650472763,475.9072725479655,1 46076U 20055BB  26112.12506027  .00001686  00000+0  69055-4 0  9999,2 46076  53.1606 259.2212 0000992  80.7165 279.3948 15.30195864315874
STARLINK-1559,46077,53.0237,9.75e-05,15.34069726,463.01798259941097,464.35213790116086,1 46077U 20055BC  26113.57692333  .00043482  00000+0  13040-2 0  9997,2 46077  53.0237 224.2521 0000975 266.5609  93.5280 15.34069726316469
STARLINK-1566,46079,53.1604,0.0001141,15.29859083,475.4510915178689,477.0152587918401,1 46079U 20055BE  26113.71154951  .00140364  00000+0  47118-2 0  9994,2 46079  53.1604 251.8585 0001141  88.3837 271.7295 15.29859083316132
STARLINK-1568,46080,53.0586,0.0003908,15.50193713,413.5047864485823,418.8152089819969,1 46080U 20055BF  26113.35500586  .00029195  00000+0  51463-3 0  9992,2 46080  53.0586 179.2358 0003908 311.7937  48.2737 15.50193713317112
STARLINK-1578,46082,53.1492,0.00012,15.29351241,476.927776277219,478.5731892730837,1 46082U 20055BH  26113.63844815 -.00003319  00000+0 -10274-3 0  9998,2 46082  53.1492 252.5971 0001200  97.2904 262.8233 15.29351241316112
STARLINK-1579,46083,53.1616,6.88e-05,15.30205461,474.72725440561135,475.67027340672485,1 46083U 20055BJ  26113.11426503  .00002204  00000+0  86500-4 0  9998,2 46083  53.1616 254.6812 0000688 109.3732 250.7343 15.30205461316034
STARLINK-1593,46119,53.0347,0.0003684,15.98884312,275.06113157990785,279.96501455374346,1 46119U 20057C   26114.00003472  .00442893  94052-4  90418-3 0  9994,2 46119  53.0347  41.3657 0003684 151.5609 121.4661 15.98884312  6027
STARLINK-1621,46127,53.0343,0.0005792,16.10597586,241.3682233719137,249.04070212236002,1 46127U 20057L   26113.88383815  .00980524  57662-3  98004-3 0  9992,2 46127  53.0343  13.6147 0005792 227.5993 132.4551 16.10597586314278
STARLINK-1622,46128,53.0206,9.23e-05,15.72444412,351.29206771960617,352.5344349960069,1 46128U 20057M   26112.98480846  .00085289  00000+0  62562-3 0  9999,2 46128  53.0206   5.5722 0000923  37.1083 322.9998 15.72444412314314
STARLINK-1623,46129,53.0457,0.00017,15.64845713,372.5347137316894,374.83033236952724,1 46129U 20057N   26114.00003472  .01280142  00000+0  11485-1 0  9993,2 46129  53.0457  36.0557 0001700  86.8627 263.5730 15.64845713  5947
STARLINK-1624,46130,53.0373,0.0006759,15.84406556,313.4703357228109,322.52216865311857,1 46130U 20057P   26114.00003472  .00205693  00000+0  86417-3 0  9991,2 46130  53.0373   6.4228 0006759 146.6594 147.2777 15.84406556  6006
STARLINK-1596,46141,53.0397,0.0001745,15.52060436,409.5264089045186,411.8957168784664,1 46141U 20057AA  26113.92715434  .00070069  00000+0  11397-2 0  9992,2 46141  53.0397  14.1670 0001745 141.0269 219.0866 15.52060436314286
STARLINK-1597,46142,53.0452,0.0004666,15.65886677,367.54089006583854,373.83889532210014,1 46142U 20057AB  26113.33155688  .00064152  00000+0  61914-3 0  9994,2 46142  53.0452  78.9906 0004666  22.2378 337.8839 15.65886677313314
